<?xml version="1.0" encoding="UTF-8"?>
<gpx xmlns="http://www.topografix.com/GPX/1/1" xmlns:xsi="http://www.w3.org/2001/XMLSchema-instance" creator="IGNrando Android 1.97.13" version="1.1" xsi:schemaLocation="http://www.topografix.com/GPX/1/1 http://www.topografix.com/GPX/1/1/gpx.xsd">
<metadata><name>M&amp;V Belvédère </name>
<desc></desc>
<author><name>Geoffrey  Vaquette </name></author>
<time>2025-06-01T10:41:47Z</time>
</metadata>
<trk>
<name>M&V Belvédère </name>
<desc></desc>
<trkseg>
<trkpt lat="45.096389" lon="5.579994"><ele>1019.2</ele><time>2025-06-01T10:41:11Z</time></trkpt>
<trkpt lat="45.096391" lon="5.580011"><ele>1019.2</ele><time>2025-06-01T10:41:11Z</time></trkpt>
<trkpt lat="45.096324" lon="5.580020"><ele>1019.2</ele><time>2025-06-01T10:41:11Z</time></trkpt>
<trkpt lat="45.096247" lon="5.580019"><ele>1019.3</ele><time>2025-06-01T10:41:11Z</time></trkpt>
<trkpt lat="45.096180" lon="5.580002"><ele>1019.3</ele><time>2025-06-01T10:41:11Z</time></trkpt>
<trkpt lat="45.096120" lon="5.579978"><ele>1019.4</ele><time>2025-06-01T10:41:11Z</time></trkpt>
<trkpt lat="45.096039" lon="5.579933"><ele>1019.6</ele><time>2025-06-01T10:41:11Z</time></trkpt>
<trkpt lat="45.095779" lon="5.579777"><ele>1020.3</ele><time>2025-06-01T10:41:11Z</time></trkpt>
<trkpt lat="45.095514" lon="5.579606"><ele>1021.7</ele><time>2025-06-01T10:41:11Z</time></trkpt>
<trkpt lat="45.095472" lon="5.579581"><ele>1022.1</ele><time>2025-06-01T10:41:11Z</time></trkpt>
<trkpt lat="45.095447" lon="5.579566"><ele>1022.1</ele><time>2025-06-01T10:41:11Z</time></trkpt>
<trkpt lat="45.095370" lon="5.579521"><ele>1022.9</ele><time>2025-06-01T10:41:11Z</time></trkpt>
<trkpt lat="45.095228" lon="5.579440"><ele>1024.4</ele><time>2025-06-01T10:41:11Z</time></trkpt>
<trkpt lat="45.095120" lon="5.579383"><ele>1026.2</ele><time>2025-06-01T10:41:11Z</time></trkpt>
<trkpt lat="45.095102" lon="5.579375"><ele>1026.7</ele><time>2025-06-01T10:41:11Z</time></trkpt>
<trkpt lat="45.094962" lon="5.579300"><ele>1028.0</ele><time>2025-06-01T10:41:11Z</time></trkpt>
<trkpt lat="45.094838" lon="5.579238"><ele>1029.1</ele><time>2025-06-01T10:41:11Z</time></trkpt>
<trkpt lat="45.094730" lon="5.579176"><ele>1029.7</ele><time>2025-06-01T10:41:11Z</time></trkpt>
<trkpt lat="45.094646" lon="5.579120"><ele>1030.1</ele><time>2025-06-01T10:41:11Z</time></trkpt>
<trkpt lat="45.094539" lon="5.579061"><ele>1030.8</ele><time>2025-06-01T10:41:11Z</time></trkpt>
<trkpt lat="45.094393" lon="5.579002"><ele>1031.2</ele><time>2025-06-01T10:41:11Z</time></trkpt>
<trkpt lat="45.094371" lon="5.578991"><ele>1031.2</ele><time>2025-06-01T10:41:11Z</time></trkpt>
<trkpt lat="45.094293" lon="5.579287"><ele>1032.3</ele><time>2025-06-01T10:41:11Z</time></trkpt>
<trkpt lat="45.094001" lon="5.580209"><ele>1037.8</ele><time>2025-06-01T10:41:11Z</time></trkpt>
<trkpt lat="45.093954" lon="5.580342"><ele>1038.7</ele><time>2025-06-01T10:41:11Z</time></trkpt>
<trkpt lat="45.093928" lon="5.580395"><ele>1039.2</ele><time>2025-06-01T10:41:11Z</time></trkpt>
<trkpt lat="45.093884" lon="5.580436"><ele>1039.7</ele><time>2025-06-01T10:41:11Z</time></trkpt>
<trkpt lat="45.093834" lon="5.580465"><ele>1040.2</ele><time>2025-06-01T10:41:11Z</time></trkpt>
<trkpt lat="45.093772" lon="5.580472"><ele>1040.6</ele><time>2025-06-01T10:41:11Z</time></trkpt>
<trkpt lat="45.093714" lon="5.580468"><ele>1040.8</ele><time>2025-06-01T10:41:11Z</time></trkpt>
<trkpt lat="45.093485" lon="5.580426"><ele>1041.3</ele><time>2025-06-01T10:41:11Z</time></trkpt>
<trkpt lat="45.093260" lon="5.580376"><ele>1041.4</ele><time>2025-06-01T10:41:11Z</time></trkpt>
<trkpt lat="45.093174" lon="5.580363"><ele>1041.1</ele><time>2025-06-01T10:41:11Z</time></trkpt>
<trkpt lat="45.093135" lon="5.580362"><ele>1041.1</ele><time>2025-06-01T10:41:11Z</time></trkpt>
<trkpt lat="45.093106" lon="5.580375"><ele>1041.6</ele><time>2025-06-01T10:41:11Z</time></trkpt>
<trkpt lat="45.093075" lon="5.580417"><ele>1042.1</ele><time>2025-06-01T10:41:11Z</time></trkpt>
<trkpt lat="45.093064" lon="5.580471"><ele>1042.6</ele><time>2025-06-01T10:41:11Z</time></trkpt>
<trkpt lat="45.093059" lon="5.580596"><ele>1043.8</ele><time>2025-06-01T10:41:11Z</time></trkpt>
<trkpt lat="45.093050" lon="5.580738"><ele>1045.1</ele><time>2025-06-01T10:41:11Z</time></trkpt>
<trkpt lat="45.093039" lon="5.580830"><ele>1046.0</ele><time>2025-06-01T10:41:11Z</time></trkpt>
<trkpt lat="45.093038" lon="5.580850"><ele>1046.4</ele><time>2025-06-01T10:41:11Z</time></trkpt>
<trkpt lat="45.093022" lon="5.580899"><ele>1046.9</ele><time>2025-06-01T10:41:11Z</time></trkpt>
<trkpt lat="45.093014" lon="5.580925"><ele>1047.3</ele><time>2025-06-01T10:41:11Z</time></trkpt>
<trkpt lat="45.093004" lon="5.581024"><ele>1048.1</ele><time>2025-06-01T10:41:11Z</time></trkpt>
<trkpt lat="45.093015" lon="5.581111"><ele>1048.9</ele><time>2025-06-01T10:41:11Z</time></trkpt>
<trkpt lat="45.093020" lon="5.581157"><ele>1049.3</ele><time>2025-06-01T10:41:11Z</time></trkpt>
<trkpt lat="45.093019" lon="5.581208"><ele>1049.7</ele><time>2025-06-01T10:41:11Z</time></trkpt>
<trkpt lat="45.093001" lon="5.581252"><ele>1050.0</ele><time>2025-06-01T10:41:11Z</time></trkpt>
<trkpt lat="45.092927" lon="5.581333"><ele>1051.1</ele><time>2025-06-01T10:41:11Z</time></trkpt>
<trkpt lat="45.092966" lon="5.581379"><ele>1051.3</ele><time>2025-06-01T10:41:11Z</time></trkpt>
<trkpt lat="45.093012" lon="5.581424"><ele>1051.4</ele><time>2025-06-01T10:41:11Z</time></trkpt>
<trkpt lat="45.093088" lon="5.581468"><ele>1051.1</ele><time>2025-06-01T10:41:11Z</time></trkpt>
<trkpt lat="45.093159" lon="5.581490"><ele>1051.1</ele><time>2025-06-01T10:41:11Z</time></trkpt>
<trkpt lat="45.093162" lon="5.581531"><ele>1051.3</ele><time>2025-06-01T10:41:11Z</time></trkpt>
<trkpt lat="45.093153" lon="5.581675"><ele>1052.0</ele><time>2025-06-01T10:41:11Z</time></trkpt>
<trkpt lat="45.093140" lon="5.581855"><ele>1052.6</ele><time>2025-06-01T10:41:11Z</time></trkpt>
<trkpt lat="45.093132" lon="5.581942"><ele>1052.8</ele><time>2025-06-01T10:41:11Z</time></trkpt>
<trkpt lat="45.093116" lon="5.582020"><ele>1053.4</ele><time>2025-06-01T10:41:11Z</time></trkpt>
<trkpt lat="45.093086" lon="5.582084"><ele>1053.5</ele><time>2025-06-01T10:41:11Z</time></trkpt>
<trkpt lat="45.093015" lon="5.582150"><ele>1054.6</ele><time>2025-06-01T10:41:11Z</time></trkpt>
<trkpt lat="45.092922" lon="5.582231"><ele>1055.6</ele><time>2025-06-01T10:41:11Z</time></trkpt>
<trkpt lat="45.092881" lon="5.582275"><ele>1056.1</ele><time>2025-06-01T10:41:11Z</time></trkpt>
<trkpt lat="45.092802" lon="5.582359"><ele>1057.1</ele><time>2025-06-01T10:41:11Z</time></trkpt>
<trkpt lat="45.092629" lon="5.582595"><ele>1058.5</ele><time>2025-06-01T10:41:11Z</time></trkpt>
<trkpt lat="45.092509" lon="5.582772"><ele>1059.8</ele><time>2025-06-01T10:41:11Z</time></trkpt>
<trkpt lat="45.092438" lon="5.582873"><ele>1060.2</ele><time>2025-06-01T10:41:11Z</time></trkpt>
<trkpt lat="45.092319" lon="5.582969"><ele>1061.8</ele><time>2025-06-01T10:41:11Z</time></trkpt>
<trkpt lat="45.092193" lon="5.583055"><ele>1063.5</ele><time>2025-06-01T10:41:11Z</time></trkpt>
<trkpt lat="45.092065" lon="5.583110"><ele>1065.2</ele><time>2025-06-01T10:41:11Z</time></trkpt>
<trkpt lat="45.091808" lon="5.583169"><ele>1068.7</ele><time>2025-06-01T10:41:11Z</time></trkpt>
<trkpt lat="45.091519" lon="5.583237"><ele>1072.5</ele><time>2025-06-01T10:41:11Z</time></trkpt>
<trkpt lat="45.091442" lon="5.583263"><ele>1073.8</ele><time>2025-06-01T10:41:11Z</time></trkpt>
<trkpt lat="45.091368" lon="5.583277"><ele>1074.4</ele><time>2025-06-01T10:41:11Z</time></trkpt>
<trkpt lat="45.091311" lon="5.583275"><ele>1075.6</ele><time>2025-06-01T10:41:11Z</time></trkpt>
<trkpt lat="45.091247" lon="5.583251"><ele>1076.2</ele><time>2025-06-01T10:41:11Z</time></trkpt>
<trkpt lat="45.091162" lon="5.583197"><ele>1077.1</ele><time>2025-06-01T10:41:11Z</time></trkpt>
<trkpt lat="45.091052" lon="5.583108"><ele>1078.8</ele><time>2025-06-01T10:41:11Z</time></trkpt>
<trkpt lat="45.090955" lon="5.583057"><ele>1080.0</ele><time>2025-06-01T10:41:11Z</time></trkpt>
<trkpt lat="45.090865" lon="5.583035"><ele>1081.1</ele><time>2025-06-01T10:41:11Z</time></trkpt>
<trkpt lat="45.090765" lon="5.583038"><ele>1081.9</ele><time>2025-06-01T10:41:11Z</time></trkpt>
<trkpt lat="45.090678" lon="5.583056"><ele>1082.8</ele><time>2025-06-01T10:41:11Z</time></trkpt>
<trkpt lat="45.090521" lon="5.583154"><ele>1084.1</ele><time>2025-06-01T10:41:11Z</time></trkpt>
<trkpt lat="45.090349" lon="5.583323"><ele>1085.1</ele><time>2025-06-01T10:41:11Z</time></trkpt>
<trkpt lat="45.090320" lon="5.583371"><ele>1085.3</ele><time>2025-06-01T10:41:11Z</time></trkpt>
<trkpt lat="45.090303" lon="5.583415"><ele>1086.0</ele><time>2025-06-01T10:41:11Z</time></trkpt>
<trkpt lat="45.090302" lon="5.583453"><ele>1086.0</ele><time>2025-06-01T10:41:11Z</time></trkpt>
<trkpt lat="45.090308" lon="5.583490"><ele>1086.4</ele><time>2025-06-01T10:41:11Z</time></trkpt>
<trkpt lat="45.090326" lon="5.583525"><ele>1086.7</ele><time>2025-06-01T10:41:11Z</time></trkpt>
<trkpt lat="45.090355" lon="5.583554"><ele>1087.1</ele><time>2025-06-01T10:41:11Z</time></trkpt>
<trkpt lat="45.090394" lon="5.583591"><ele>1087.3</ele><time>2025-06-01T10:41:11Z</time></trkpt>
<trkpt lat="45.090472" lon="5.583639"><ele>1087.3</ele><time>2025-06-01T10:41:11Z</time></trkpt>
<trkpt lat="45.090508" lon="5.583670"><ele>1087.0</ele><time>2025-06-01T10:41:11Z</time></trkpt>
<trkpt lat="45.090533" lon="5.583704"><ele>1087.2</ele><time>2025-06-01T10:41:11Z</time></trkpt>
<trkpt lat="45.090546" lon="5.583744"><ele>1087.5</ele><time>2025-06-01T10:41:11Z</time></trkpt>
<trkpt lat="45.090552" lon="5.583783"><ele>1087.9</ele><time>2025-06-01T10:41:11Z</time></trkpt>
<trkpt lat="45.090551" lon="5.583820"><ele>1088.2</ele><time>2025-06-01T10:41:11Z</time></trkpt>
<trkpt lat="45.090547" lon="5.583850"><ele>1088.6</ele><time>2025-06-01T10:41:11Z</time></trkpt>
<trkpt lat="45.090529" lon="5.583881"><ele>1088.6</ele><time>2025-06-01T10:41:11Z</time></trkpt>
<trkpt lat="45.090503" lon="5.583897"><ele>1089.3</ele><time>2025-06-01T10:41:11Z</time></trkpt>
<trkpt lat="45.090469" lon="5.583901"><ele>1089.3</ele><time>2025-06-01T10:41:11Z</time></trkpt>
<trkpt lat="45.090417" lon="5.583891"><ele>1089.9</ele><time>2025-06-01T10:41:11Z</time></trkpt>
<trkpt lat="45.090340" lon="5.583864"><ele>1089.7</ele><time>2025-06-01T10:41:11Z</time></trkpt>
<trkpt lat="45.090278" lon="5.583859"><ele>1089.9</ele><time>2025-06-01T10:41:11Z</time></trkpt>
<trkpt lat="45.090220" lon="5.583874"><ele>1089.9</ele><time>2025-06-01T10:41:11Z</time></trkpt>
<trkpt lat="45.090194" lon="5.583907"><ele>1090.4</ele><time>2025-06-01T10:41:11Z</time></trkpt>
<trkpt lat="45.090171" lon="5.583956"><ele>1090.9</ele><time>2025-06-01T10:41:11Z</time></trkpt>
<trkpt lat="45.090157" lon="5.584024"><ele>1092.0</ele><time>2025-06-01T10:41:11Z</time></trkpt>
<trkpt lat="45.090142" lon="5.584096"><ele>1092.5</ele><time>2025-06-01T10:41:11Z</time></trkpt>
<trkpt lat="45.090115" lon="5.584131"><ele>1093.1</ele><time>2025-06-01T10:41:11Z</time></trkpt>
<trkpt lat="45.090074" lon="5.584165"><ele>1093.7</ele><time>2025-06-01T10:41:11Z</time></trkpt>
<trkpt lat="45.090057" lon="5.584191"><ele>1094.3</ele><time>2025-06-01T10:41:11Z</time></trkpt>
<trkpt lat="45.090059" lon="5.584236"><ele>1094.9</ele><time>2025-06-01T10:41:11Z</time></trkpt>
<trkpt lat="45.090074" lon="5.584273"><ele>1094.9</ele><time>2025-06-01T10:41:11Z</time></trkpt>
<trkpt lat="45.090096" lon="5.584306"><ele>1095.6</ele><time>2025-06-01T10:41:11Z</time></trkpt>
<trkpt lat="45.090168" lon="5.584375"><ele>1096.7</ele><time>2025-06-01T10:41:11Z</time></trkpt>
<trkpt lat="45.090192" lon="5.584424"><ele>1097.3</ele><time>2025-06-01T10:41:11Z</time></trkpt>
<trkpt lat="45.090205" lon="5.584472"><ele>1097.8</ele><time>2025-06-01T10:41:11Z</time></trkpt>
<trkpt lat="45.090203" lon="5.584531"><ele>1098.6</ele><time>2025-06-01T10:41:11Z</time></trkpt>
<trkpt lat="45.090193" lon="5.584611"><ele>1099.9</ele><time>2025-06-01T10:41:11Z</time></trkpt>
<trkpt lat="45.090165" lon="5.584720"><ele>1101.9</ele><time>2025-06-01T10:41:11Z</time></trkpt>
<trkpt lat="45.090143" lon="5.584821"><ele>1103.4</ele><time>2025-06-01T10:41:11Z</time></trkpt>
<trkpt lat="45.090145" lon="5.584888"><ele>1104.7</ele><time>2025-06-01T10:41:11Z</time></trkpt>
<trkpt lat="45.090152" lon="5.584911"><ele>1104.7</ele><time>2025-06-01T10:41:11Z</time></trkpt>
<trkpt lat="45.090159" lon="5.584940"><ele>1105.3</ele><time>2025-06-01T10:41:11Z</time></trkpt>
<trkpt lat="45.090208" lon="5.585004"><ele>1105.6</ele><time>2025-06-01T10:41:11Z</time></trkpt>
<trkpt lat="45.090275" lon="5.585095"><ele>1107.3</ele><time>2025-06-01T10:41:11Z</time></trkpt>
<trkpt lat="45.090347" lon="5.585159"><ele>1107.6</ele><time>2025-06-01T10:41:11Z</time></trkpt>
<trkpt lat="45.090405" lon="5.585231"><ele>1108.6</ele><time>2025-06-01T10:41:11Z</time></trkpt>
<trkpt lat="45.090462" lon="5.585314"><ele>1109.6</ele><time>2025-06-01T10:41:11Z</time></trkpt>
<trkpt lat="45.090501" lon="5.585381"><ele>1110.1</ele><time>2025-06-01T10:41:11Z</time></trkpt>
<trkpt lat="45.090556" lon="5.585451"><ele>1111.1</ele><time>2025-06-01T10:41:11Z</time></trkpt>
<trkpt lat="45.090618" lon="5.585477"><ele>1111.7</ele><time>2025-06-01T10:41:11Z</time></trkpt>
<trkpt lat="45.090622" lon="5.585535"><ele>1112.3</ele><time>2025-06-01T10:41:11Z</time></trkpt>
<trkpt lat="45.090623" lon="5.585634"><ele>1113.6</ele><time>2025-06-01T10:41:11Z</time></trkpt>
<trkpt lat="45.090629" lon="5.585878"><ele>1117.7</ele><time>2025-06-01T10:41:11Z</time></trkpt>
<trkpt lat="45.090646" lon="5.586131"><ele>1122.3</ele><time>2025-06-01T10:41:11Z</time></trkpt>
<trkpt lat="45.090658" lon="5.586379"><ele>1127.2</ele><time>2025-06-01T10:41:11Z</time></trkpt>
<trkpt lat="45.090676" lon="5.586651"><ele>1132.8</ele><time>2025-06-01T10:41:11Z</time></trkpt>
<trkpt lat="45.090698" lon="5.586875"><ele>1138.1</ele><time>2025-06-01T10:41:11Z</time></trkpt>
<trkpt lat="45.090701" lon="5.587094"><ele>1143.6</ele><time>2025-06-01T10:41:11Z</time></trkpt>
<trkpt lat="45.090712" lon="5.587301"><ele>1149.4</ele><time>2025-06-01T10:41:11Z</time></trkpt>
<trkpt lat="45.090728" lon="5.587418"><ele>1153.0</ele><time>2025-06-01T10:41:11Z</time></trkpt>
<trkpt lat="45.090829" lon="5.587509"><ele>1155.5</ele><time>2025-06-01T10:41:11Z</time></trkpt>
<trkpt lat="45.090910" lon="5.587594"><ele>1158.0</ele><time>2025-06-01T10:41:11Z</time></trkpt>
<trkpt lat="45.090976" lon="5.587663"><ele>1159.2</ele><time>2025-06-01T10:41:11Z</time></trkpt>
<trkpt lat="45.091069" lon="5.587800"><ele>1163.6</ele><time>2025-06-01T10:41:11Z</time></trkpt>
<trkpt lat="45.091132" lon="5.587906"><ele>1165.8</ele><time>2025-06-01T10:41:11Z</time></trkpt>
<trkpt lat="45.091182" lon="5.587985"><ele>1168.0</ele><time>2025-06-01T10:41:11Z</time></trkpt>
<trkpt lat="45.091260" lon="5.588118"><ele>1171.3</ele><time>2025-06-01T10:41:11Z</time></trkpt>
<trkpt lat="45.091321" lon="5.588229"><ele>1174.8</ele><time>2025-06-01T10:41:11Z</time></trkpt>
<trkpt lat="45.091371" lon="5.588337"><ele>1176.9</ele><time>2025-06-01T10:41:11Z</time></trkpt>
<trkpt lat="45.091463" lon="5.588494"><ele>1181.6</ele><time>2025-06-01T10:41:11Z</time></trkpt>
<trkpt lat="45.091526" lon="5.588687"><ele>1186.6</ele><time>2025-06-01T10:41:11Z</time></trkpt>
<trkpt lat="45.091557" lon="5.588836"><ele>1191.6</ele><time>2025-06-01T10:41:11Z</time></trkpt>
<trkpt lat="45.091344" lon="5.588922"><ele>1194.6</ele><time>2025-06-01T10:41:11Z</time></trkpt>
<trkpt lat="45.091050" lon="5.589137"><ele>1200.5</ele><time>2025-06-01T10:41:11Z</time></trkpt>
<trkpt lat="45.090897" lon="5.589360"><ele>1207.0</ele><time>2025-06-01T10:41:11Z</time></trkpt>
<trkpt lat="45.090798" lon="5.589478"><ele>1211.2</ele><time>2025-06-01T10:41:11Z</time></trkpt>
<trkpt lat="45.090638" lon="5.589585"><ele>1214.0</ele><time>2025-06-01T10:41:11Z</time></trkpt>
<trkpt lat="45.090376" lon="5.589716"><ele>1218.4</ele><time>2025-06-01T10:41:11Z</time></trkpt>
<trkpt lat="45.090111" lon="5.589783"><ele>1222.2</ele><time>2025-06-01T10:41:11Z</time></trkpt>
<trkpt lat="45.089874" lon="5.589886"><ele>1226.5</ele><time>2025-06-01T10:41:11Z</time></trkpt>
<trkpt lat="45.089597" lon="5.589809"><ele>1227.6</ele><time>2025-06-01T10:41:11Z</time></trkpt>
<trkpt lat="45.089320" lon="5.589703"><ele>1225.1</ele><time>2025-06-01T10:41:11Z</time></trkpt>
<trkpt lat="45.088860" lon="5.589944"><ele>1241.0</ele><time>2025-06-01T10:41:11Z</time></trkpt>
<trkpt lat="45.088463" lon="5.590162"><ele>1255.3</ele><time>2025-06-01T10:41:11Z</time></trkpt>
<trkpt lat="45.088190" lon="5.590321"><ele>1263.6</ele><time>2025-06-01T10:41:11Z</time></trkpt>
<trkpt lat="45.087835" lon="5.590559"><ele>1275.3</ele><time>2025-06-01T10:41:11Z</time></trkpt>
<trkpt lat="45.087563" lon="5.590897"><ele>1287.8</ele><time>2025-06-01T10:41:11Z</time></trkpt>
<trkpt lat="45.087400" lon="5.591141"><ele>1295.3</ele><time>2025-06-01T10:41:11Z</time></trkpt>
<trkpt lat="45.087414" lon="5.591221"><ele>1297.0</ele><time>2025-06-01T10:41:11Z</time></trkpt>
<trkpt lat="45.087554" lon="5.591314"><ele>1303.1</ele><time>2025-06-01T10:41:11Z</time></trkpt>
<trkpt lat="45.087819" lon="5.591476"><ele>1312.6</ele><time>2025-06-01T10:41:11Z</time></trkpt>
<trkpt lat="45.087867" lon="5.591546"><ele>1316.2</ele><time>2025-06-01T10:41:11Z</time></trkpt>
<trkpt lat="45.087738" lon="5.591715"><ele>1321.6</ele><time>2025-06-01T10:41:11Z</time></trkpt>
<trkpt lat="45.087617" lon="5.591855"><ele>1324.8</ele><time>2025-06-01T10:41:11Z</time></trkpt>
<trkpt lat="45.087575" lon="5.591924"><ele>1327.4</ele><time>2025-06-01T10:41:11Z</time></trkpt>
<trkpt lat="45.087619" lon="5.591998"><ele>1331.2</ele><time>2025-06-01T10:41:11Z</time></trkpt>
<trkpt lat="45.087708" lon="5.592060"><ele>1333.9</ele><time>2025-06-01T10:41:11Z</time></trkpt>
<trkpt lat="45.087984" lon="5.592361"><ele>1347.4</ele><time>2025-06-01T10:41:11Z</time></trkpt>
<trkpt lat="45.088194" lon="5.592587"><ele>1354.8</ele><time>2025-06-01T10:41:11Z</time></trkpt>
<trkpt lat="45.088325" lon="5.592818"><ele>1362.6</ele><time>2025-06-01T10:41:11Z</time></trkpt>
<trkpt lat="45.088348" lon="5.593019"><ele>1367.7</ele><time>2025-06-01T10:41:11Z</time></trkpt>
<trkpt lat="45.088451" lon="5.593257"><ele>1375.1</ele><time>2025-06-01T10:41:11Z</time></trkpt>
<trkpt lat="45.088618" lon="5.593626"><ele>1385.7</ele><time>2025-06-01T10:41:11Z</time></trkpt>
<trkpt lat="45.088707" lon="5.593719"><ele>1387.3</ele><time>2025-06-01T10:41:11Z</time></trkpt>
<trkpt lat="45.088984" lon="5.593723"><ele>1385.7</ele><time>2025-06-01T10:41:11Z</time></trkpt>
<trkpt lat="45.089149" lon="5.593730"><ele>1384.3</ele><time>2025-06-01T10:41:11Z</time></trkpt>
<trkpt lat="45.089266" lon="5.593825"><ele>1384.7</ele><time>2025-06-01T10:41:11Z</time></trkpt>
<trkpt lat="45.089236" lon="5.593852"><ele>1385.8</ele><time>2025-06-01T10:41:11Z</time></trkpt>
</trkseg>
</trk>
</gpx>