<?xml version="1.0" encoding="UTF-8"?>
<gpx xmlns="http://www.topografix.com/GPX/1/1" xmlns:xsi="http://www.w3.org/2001/XMLSchema-instance" creator="IGNrando Android 1.97.13" version="1.1" xsi:schemaLocation="http://www.topografix.com/GPX/1/1 http://www.topografix.com/GPX/1/1/gpx.xsd">
<metadata><name>Roc saint Michel M&amp;V</name>
<desc></desc>
<author><name>Geoffrey  Vaquette </name></author>
<time>2025-06-01T10:35:30Z</time>
</metadata>
<trk>
<name>Roc saint Michel M&V</name>
<desc></desc>
<trkseg>
<trkpt lat="45.107550" lon="5.603552"><ele>1267.4</ele><time>2025-06-01T10:34:34Z</time></trkpt>
<trkpt lat="45.107531" lon="5.603424"><ele>1270.4</ele><time>2025-06-01T10:34:34Z</time></trkpt>
<trkpt lat="45.107308" lon="5.603490"><ele>1273.1</ele><time>2025-06-01T10:34:34Z</time></trkpt>
<trkpt lat="45.107015" lon="5.603575"><ele>1276.1</ele><time>2025-06-01T10:34:34Z</time></trkpt>
<trkpt lat="45.106811" lon="5.603637"><ele>1277.9</ele><time>2025-06-01T10:34:34Z</time></trkpt>
<trkpt lat="45.106710" lon="5.603675"><ele>1278.5</ele><time>2025-06-01T10:34:34Z</time></trkpt>
<trkpt lat="45.106649" lon="5.603622"><ele>1280.5</ele><time>2025-06-01T10:34:34Z</time></trkpt>
<trkpt lat="45.106608" lon="5.603616"><ele>1281.1</ele><time>2025-06-01T10:34:34Z</time></trkpt>
<trkpt lat="45.106522" lon="5.603629"><ele>1281.3</ele><time>2025-06-01T10:34:34Z</time></trkpt>
<trkpt lat="45.106321" lon="5.603640"><ele>1284.3</ele><time>2025-06-01T10:34:34Z</time></trkpt>
<trkpt lat="45.106064" lon="5.603615"><ele>1289.2</ele><time>2025-06-01T10:34:34Z</time></trkpt>
<trkpt lat="45.105754" lon="5.603564"><ele>1293.2</ele><time>2025-06-01T10:34:34Z</time></trkpt>
<trkpt lat="45.105336" lon="5.603521"><ele>1297.1</ele><time>2025-06-01T10:34:34Z</time></trkpt>
<trkpt lat="45.105109" lon="5.603486"><ele>1298.8</ele><time>2025-06-01T10:34:34Z</time></trkpt>
<trkpt lat="45.104919" lon="5.603430"><ele>1299.9</ele><time>2025-06-01T10:34:34Z</time></trkpt>
<trkpt lat="45.104683" lon="5.603421"><ele>1300.0</ele><time>2025-06-01T10:34:34Z</time></trkpt>
<trkpt lat="45.104464" lon="5.603422"><ele>1300.6</ele><time>2025-06-01T10:34:34Z</time></trkpt>
<trkpt lat="45.104204" lon="5.603406"><ele>1302.3</ele><time>2025-06-01T10:34:34Z</time></trkpt>
<trkpt lat="45.103921" lon="5.603359"><ele>1303.6</ele><time>2025-06-01T10:34:34Z</time></trkpt>
<trkpt lat="45.103507" lon="5.603229"><ele>1311.7</ele><time>2025-06-01T10:34:34Z</time></trkpt>
<trkpt lat="45.103231" lon="5.603178"><ele>1316.4</ele><time>2025-06-01T10:34:34Z</time></trkpt>
<trkpt lat="45.103010" lon="5.603193"><ele>1318.9</ele><time>2025-06-01T10:34:34Z</time></trkpt>
<trkpt lat="45.102818" lon="5.603183"><ele>1321.2</ele><time>2025-06-01T10:34:34Z</time></trkpt>
<trkpt lat="45.102488" lon="5.603115"><ele>1326.0</ele><time>2025-06-01T10:34:34Z</time></trkpt>
<trkpt lat="45.102212" lon="5.603074"><ele>1330.9</ele><time>2025-06-01T10:34:34Z</time></trkpt>
<trkpt lat="45.101984" lon="5.603052"><ele>1332.9</ele><time>2025-06-01T10:34:34Z</time></trkpt>
<trkpt lat="45.101791" lon="5.603060"><ele>1335.5</ele><time>2025-06-01T10:34:34Z</time></trkpt>
<trkpt lat="45.101556" lon="5.603093"><ele>1338.1</ele><time>2025-06-01T10:34:34Z</time></trkpt>
<trkpt lat="45.101357" lon="5.603073"><ele>1342.2</ele><time>2025-06-01T10:34:34Z</time></trkpt>
<trkpt lat="45.101140" lon="5.603094"><ele>1345.8</ele><time>2025-06-01T10:34:34Z</time></trkpt>
<trkpt lat="45.100949" lon="5.603085"><ele>1348.6</ele><time>2025-06-01T10:34:34Z</time></trkpt>
<trkpt lat="45.100703" lon="5.603037"><ele>1351.6</ele><time>2025-06-01T10:34:34Z</time></trkpt>
<trkpt lat="45.100410" lon="5.603017"><ele>1354.6</ele><time>2025-06-01T10:34:34Z</time></trkpt>
<trkpt lat="45.100051" lon="5.602990"><ele>1358.3</ele><time>2025-06-01T10:34:34Z</time></trkpt>
<trkpt lat="45.099718" lon="5.602949"><ele>1362.7</ele><time>2025-06-01T10:34:34Z</time></trkpt>
<trkpt lat="45.099556" lon="5.602910"><ele>1365.2</ele><time>2025-06-01T10:34:34Z</time></trkpt>
<trkpt lat="45.099396" lon="5.602857"><ele>1366.7</ele><time>2025-06-01T10:34:34Z</time></trkpt>
<trkpt lat="45.099174" lon="5.602846"><ele>1369.5</ele><time>2025-06-01T10:34:34Z</time></trkpt>
<trkpt lat="45.098949" lon="5.602851"><ele>1372.7</ele><time>2025-06-01T10:34:34Z</time></trkpt>
<trkpt lat="45.098795" lon="5.602849"><ele>1374.8</ele><time>2025-06-01T10:34:34Z</time></trkpt>
<trkpt lat="45.098704" lon="5.602810"><ele>1377.8</ele><time>2025-06-01T10:34:34Z</time></trkpt>
<trkpt lat="45.098617" lon="5.602800"><ele>1378.5</ele><time>2025-06-01T10:34:34Z</time></trkpt>
<trkpt lat="45.098527" lon="5.602830"><ele>1379.9</ele><time>2025-06-01T10:34:34Z</time></trkpt>
<trkpt lat="45.098450" lon="5.602894"><ele>1380.3</ele><time>2025-06-01T10:34:34Z</time></trkpt>
<trkpt lat="45.098370" lon="5.602922"><ele>1381.7</ele><time>2025-06-01T10:34:34Z</time></trkpt>
<trkpt lat="45.098172" lon="5.602932"><ele>1385.5</ele><time>2025-06-01T10:34:34Z</time></trkpt>
<trkpt lat="45.097952" lon="5.602933"><ele>1388.2</ele><time>2025-06-01T10:34:34Z</time></trkpt>
<trkpt lat="45.097730" lon="5.602957"><ele>1392.2</ele><time>2025-06-01T10:34:34Z</time></trkpt>
<trkpt lat="45.097467" lon="5.602989"><ele>1397.1</ele><time>2025-06-01T10:34:34Z</time></trkpt>
<trkpt lat="45.097194" lon="5.603058"><ele>1402.9</ele><time>2025-06-01T10:34:34Z</time></trkpt>
<trkpt lat="45.097010" lon="5.603057"><ele>1405.3</ele><time>2025-06-01T10:34:34Z</time></trkpt>
<trkpt lat="45.096844" lon="5.603063"><ele>1407.6</ele><time>2025-06-01T10:34:34Z</time></trkpt>
<trkpt lat="45.096629" lon="5.603055"><ele>1410.6</ele><time>2025-06-01T10:34:34Z</time></trkpt>
<trkpt lat="45.096133" lon="5.602917"><ele>1417.8</ele><time>2025-06-01T10:34:34Z</time></trkpt>
<trkpt lat="45.096013" lon="5.602896"><ele>1418.8</ele><time>2025-06-01T10:34:34Z</time></trkpt>
<trkpt lat="45.095861" lon="5.602866"><ele>1421.2</ele><time>2025-06-01T10:34:34Z</time></trkpt>
<trkpt lat="45.095618" lon="5.602804"><ele>1424.5</ele><time>2025-06-01T10:34:34Z</time></trkpt>
<trkpt lat="45.095301" lon="5.602770"><ele>1429.2</ele><time>2025-06-01T10:34:34Z</time></trkpt>
<trkpt lat="45.094988" lon="5.602766"><ele>1434.4</ele><time>2025-06-01T10:34:34Z</time></trkpt>
<trkpt lat="45.094806" lon="5.602734"><ele>1438.5</ele><time>2025-06-01T10:34:34Z</time></trkpt>
<trkpt lat="45.094686" lon="5.602663"><ele>1441.6</ele><time>2025-06-01T10:34:34Z</time></trkpt>
<trkpt lat="45.094581" lon="5.602578"><ele>1444.2</ele><time>2025-06-01T10:34:34Z</time></trkpt>
<trkpt lat="45.094625" lon="5.602726"><ele>1442.1</ele><time>2025-06-01T10:34:34Z</time></trkpt>
<trkpt lat="45.094692" lon="5.602851"><ele>1441.0</ele><time>2025-06-01T10:34:34Z</time></trkpt>
<trkpt lat="45.094799" lon="5.602992"><ele>1438.3</ele><time>2025-06-01T10:34:34Z</time></trkpt>
<trkpt lat="45.094626" lon="5.602928"><ele>1442.0</ele><time>2025-06-01T10:34:34Z</time></trkpt>
<trkpt lat="45.094512" lon="5.602924"><ele>1445.0</ele><time>2025-06-01T10:34:34Z</time></trkpt>
<trkpt lat="45.094444" lon="5.602944"><ele>1446.8</ele><time>2025-06-01T10:34:34Z</time></trkpt>
<trkpt lat="45.094254" lon="5.603048"><ele>1451.5</ele><time>2025-06-01T10:34:34Z</time></trkpt>
<trkpt lat="45.094151" lon="5.603107"><ele>1454.4</ele><time>2025-06-01T10:34:34Z</time></trkpt>
<trkpt lat="45.094066" lon="5.603132"><ele>1456.4</ele><time>2025-06-01T10:34:34Z</time></trkpt>
<trkpt lat="45.094006" lon="5.603313"><ele>1459.1</ele><time>2025-06-01T10:34:34Z</time></trkpt>
<trkpt lat="45.093933" lon="5.603560"><ele>1464.1</ele><time>2025-06-01T10:34:34Z</time></trkpt>
<trkpt lat="45.093863" lon="5.603917"><ele>1470.5</ele><time>2025-06-01T10:34:34Z</time></trkpt>
<trkpt lat="45.093838" lon="5.604003"><ele>1472.6</ele><time>2025-06-01T10:34:34Z</time></trkpt>
<trkpt lat="45.093802" lon="5.604078"><ele>1474.8</ele><time>2025-06-01T10:34:34Z</time></trkpt>
<trkpt lat="45.093757" lon="5.604225"><ele>1478.3</ele><time>2025-06-01T10:34:34Z</time></trkpt>
<trkpt lat="45.093672" lon="5.604525"><ele>1484.6</ele><time>2025-06-01T10:34:34Z</time></trkpt>
<trkpt lat="45.093652" lon="5.604636"><ele>1486.2</ele><time>2025-06-01T10:34:34Z</time></trkpt>
<trkpt lat="45.093615" lon="5.604812"><ele>1490.0</ele><time>2025-06-01T10:34:34Z</time></trkpt>
<trkpt lat="45.093590" lon="5.605026"><ele>1494.7</ele><time>2025-06-01T10:34:34Z</time></trkpt>
<trkpt lat="45.093563" lon="5.605209"><ele>1498.3</ele><time>2025-06-01T10:34:34Z</time></trkpt>
<trkpt lat="45.093555" lon="5.605306"><ele>1501.1</ele><time>2025-06-01T10:34:34Z</time></trkpt>
<trkpt lat="45.093535" lon="5.605354"><ele>1502.4</ele><time>2025-06-01T10:34:34Z</time></trkpt>
<trkpt lat="45.093516" lon="5.605347"><ele>1502.4</ele><time>2025-06-01T10:34:34Z</time></trkpt>
<trkpt lat="45.093492" lon="5.605337"><ele>1501.7</ele><time>2025-06-01T10:34:34Z</time></trkpt>
<trkpt lat="45.093470" lon="5.605329"><ele>1501.7</ele><time>2025-06-01T10:34:34Z</time></trkpt>
<trkpt lat="45.093455" lon="5.605350"><ele>1502.9</ele><time>2025-06-01T10:34:34Z</time></trkpt>
<trkpt lat="45.093451" lon="5.605400"><ele>1503.9</ele><time>2025-06-01T10:34:34Z</time></trkpt>
<trkpt lat="45.093440" lon="5.605464"><ele>1504.8</ele><time>2025-06-01T10:34:34Z</time></trkpt>
<trkpt lat="45.093431" lon="5.605528"><ele>1506.8</ele><time>2025-06-01T10:34:34Z</time></trkpt>
<trkpt lat="45.093433" lon="5.605609"><ele>1508.8</ele><time>2025-06-01T10:34:34Z</time></trkpt>
<trkpt lat="45.093420" lon="5.605696"><ele>1511.3</ele><time>2025-06-01T10:34:34Z</time></trkpt>
<trkpt lat="45.093410" lon="5.605778"><ele>1513.5</ele><time>2025-06-01T10:34:34Z</time></trkpt>
<trkpt lat="45.093403" lon="5.605831"><ele>1514.7</ele><time>2025-06-01T10:34:34Z</time></trkpt>
<trkpt lat="45.093428" lon="5.605866"><ele>1515.7</ele><time>2025-06-01T10:34:34Z</time></trkpt>
<trkpt lat="45.093464" lon="5.605885"><ele>1515.7</ele><time>2025-06-01T10:34:34Z</time></trkpt>
<trkpt lat="45.093498" lon="5.605929"><ele>1516.7</ele><time>2025-06-01T10:34:34Z</time></trkpt>
<trkpt lat="45.093516" lon="5.605974"><ele>1517.7</ele><time>2025-06-01T10:34:34Z</time></trkpt>
<trkpt lat="45.093530" lon="5.606024"><ele>1519.1</ele><time>2025-06-01T10:34:34Z</time></trkpt>
<trkpt lat="45.093548" lon="5.606070"><ele>1520.4</ele><time>2025-06-01T10:34:34Z</time></trkpt>
<trkpt lat="45.093575" lon="5.606125"><ele>1523.1</ele><time>2025-06-01T10:34:34Z</time></trkpt>
<trkpt lat="45.093612" lon="5.606164"><ele>1522.9</ele><time>2025-06-01T10:34:34Z</time></trkpt>
<trkpt lat="45.093654" lon="5.606185"><ele>1524.3</ele><time>2025-06-01T10:34:34Z</time></trkpt>
<trkpt lat="45.093695" lon="5.606226"><ele>1525.7</ele><time>2025-06-01T10:34:34Z</time></trkpt>
<trkpt lat="45.093738" lon="5.606279"><ele>1527.2</ele><time>2025-06-01T10:34:34Z</time></trkpt>
<trkpt lat="45.093787" lon="5.606336"><ele>1530.5</ele><time>2025-06-01T10:34:34Z</time></trkpt>
<trkpt lat="45.093929" lon="5.606446"><ele>1533.7</ele><time>2025-06-01T10:34:34Z</time></trkpt>
<trkpt lat="45.094029" lon="5.606547"><ele>1539.0</ele><time>2025-06-01T10:34:34Z</time></trkpt>
<trkpt lat="45.094013" lon="5.606614"><ele>1541.1</ele><time>2025-06-01T10:34:34Z</time></trkpt>
<trkpt lat="45.093940" lon="5.606676"><ele>1545.6</ele><time>2025-06-01T10:34:34Z</time></trkpt>
<trkpt lat="45.093903" lon="5.606705"><ele>1545.6</ele><time>2025-06-01T10:34:34Z</time></trkpt>
<trkpt lat="45.093883" lon="5.606761"><ele>1547.9</ele><time>2025-06-01T10:34:34Z</time></trkpt>
<trkpt lat="45.093828" lon="5.606794"><ele>1550.2</ele><time>2025-06-01T10:34:34Z</time></trkpt>
<trkpt lat="45.093777" lon="5.606820"><ele>1552.5</ele><time>2025-06-01T10:34:34Z</time></trkpt>
<trkpt lat="45.093745" lon="5.606854"><ele>1554.9</ele><time>2025-06-01T10:34:34Z</time></trkpt>
<trkpt lat="45.093715" lon="5.606895"><ele>1557.3</ele><time>2025-06-01T10:34:34Z</time></trkpt>
<trkpt lat="45.093657" lon="5.606937"><ele>1559.8</ele><time>2025-06-01T10:34:34Z</time></trkpt>
<trkpt lat="45.093566" lon="5.606981"><ele>1562.4</ele><time>2025-06-01T10:34:34Z</time></trkpt>
<trkpt lat="45.093509" lon="5.607017"><ele>1565.0</ele><time>2025-06-01T10:34:34Z</time></trkpt>
<trkpt lat="45.093463" lon="5.607033"><ele>1565.2</ele><time>2025-06-01T10:34:34Z</time></trkpt>
<trkpt lat="45.093432" lon="5.607085"><ele>1567.5</ele><time>2025-06-01T10:34:34Z</time></trkpt>
<trkpt lat="45.093349" lon="5.607199"><ele>1575.0</ele><time>2025-06-01T10:34:34Z</time></trkpt>
<trkpt lat="45.093307" lon="5.607242"><ele>1577.7</ele><time>2025-06-01T10:34:34Z</time></trkpt>
<trkpt lat="45.093266" lon="5.607276"><ele>1580.4</ele><time>2025-06-01T10:34:34Z</time></trkpt>
<trkpt lat="45.093210" lon="5.607310"><ele>1581.2</ele><time>2025-06-01T10:34:34Z</time></trkpt>
<trkpt lat="45.093148" lon="5.607314"><ele>1581.7</ele><time>2025-06-01T10:34:34Z</time></trkpt>
<trkpt lat="45.093075" lon="5.607319"><ele>1585.1</ele><time>2025-06-01T10:34:34Z</time></trkpt>
<trkpt lat="45.093016" lon="5.607319"><ele>1585.5</ele><time>2025-06-01T10:34:34Z</time></trkpt>
<trkpt lat="45.092969" lon="5.607312"><ele>1583.5</ele><time>2025-06-01T10:34:34Z</time></trkpt>
<trkpt lat="45.092918" lon="5.607304"><ele>1584.0</ele><time>2025-06-01T10:34:34Z</time></trkpt>
<trkpt lat="45.092876" lon="5.607315"><ele>1587.0</ele><time>2025-06-01T10:34:34Z</time></trkpt>
<trkpt lat="45.092833" lon="5.607364"><ele>1587.5</ele><time>2025-06-01T10:34:34Z</time></trkpt>
<trkpt lat="45.092772" lon="5.607399"><ele>1591.0</ele><time>2025-06-01T10:34:34Z</time></trkpt>
<trkpt lat="45.092716" lon="5.607432"><ele>1593.9</ele><time>2025-06-01T10:34:34Z</time></trkpt>
<trkpt lat="45.092654" lon="5.607469"><ele>1597.2</ele><time>2025-06-01T10:34:34Z</time></trkpt>
<trkpt lat="45.092557" lon="5.607554"><ele>1602.6</ele><time>2025-06-01T10:34:34Z</time></trkpt>
<trkpt lat="45.092469" lon="5.607648"><ele>1608.0</ele><time>2025-06-01T10:34:34Z</time></trkpt>
<trkpt lat="45.092412" lon="5.607681"><ele>1610.7</ele><time>2025-06-01T10:34:34Z</time></trkpt>
<trkpt lat="45.092391" lon="5.607725"><ele>1613.7</ele><time>2025-06-01T10:34:34Z</time></trkpt>
<trkpt lat="45.092368" lon="5.607750"><ele>1615.9</ele><time>2025-06-01T10:34:34Z</time></trkpt>
<trkpt lat="45.092298" lon="5.607779"><ele>1617.6</ele><time>2025-06-01T10:34:34Z</time></trkpt>
<trkpt lat="45.092266" lon="5.607793"><ele>1617.6</ele><time>2025-06-01T10:34:34Z</time></trkpt>
<trkpt lat="45.092259" lon="5.607833"><ele>1620.9</ele><time>2025-06-01T10:34:34Z</time></trkpt>
<trkpt lat="45.092213" lon="5.607857"><ele>1624.2</ele><time>2025-06-01T10:34:34Z</time></trkpt>
<trkpt lat="45.092145" lon="5.607900"><ele>1627.5</ele><time>2025-06-01T10:34:34Z</time></trkpt>
<trkpt lat="45.092107" lon="5.607945"><ele>1630.7</ele><time>2025-06-01T10:34:34Z</time></trkpt>
<trkpt lat="45.092031" lon="5.607966"><ele>1634.7</ele><time>2025-06-01T10:34:34Z</time></trkpt>
<trkpt lat="45.092001" lon="5.607967"><ele>1635.7</ele><time>2025-06-01T10:34:34Z</time></trkpt>
<trkpt lat="45.091970" lon="5.607972"><ele>1635.7</ele><time>2025-06-01T10:34:34Z</time></trkpt>
<trkpt lat="45.091962" lon="5.608001"><ele>1636.4</ele><time>2025-06-01T10:34:34Z</time></trkpt>
<trkpt lat="45.091930" lon="5.608053"><ele>1637.8</ele><time>2025-06-01T10:34:34Z</time></trkpt>
<trkpt lat="45.091871" lon="5.608145"><ele>1637.6</ele><time>2025-06-01T10:34:34Z</time></trkpt>
<trkpt lat="45.091845" lon="5.608195"><ele>1637.5</ele><time>2025-06-01T10:34:34Z</time></trkpt>
<trkpt lat="45.091815" lon="5.608245"><ele>1636.8</ele><time>2025-06-01T10:34:34Z</time></trkpt>
<trkpt lat="45.091771" lon="5.608267"><ele>1636.0</ele><time>2025-06-01T10:34:34Z</time></trkpt>
<trkpt lat="45.091730" lon="5.608303"><ele>1635.5</ele><time>2025-06-01T10:34:34Z</time></trkpt>
<trkpt lat="45.091700" lon="5.608365"><ele>1634.1</ele><time>2025-06-01T10:34:34Z</time></trkpt>
<trkpt lat="45.091668" lon="5.608430"><ele>1633.8</ele><time>2025-06-01T10:34:34Z</time></trkpt>
<trkpt lat="45.091673" lon="5.608538"><ele>1633.6</ele><time>2025-06-01T10:34:34Z</time></trkpt>
<trkpt lat="45.091696" lon="5.608641"><ele>1634.2</ele><time>2025-06-01T10:34:34Z</time></trkpt>
<trkpt lat="45.091689" lon="5.608699"><ele>1635.3</ele><time>2025-06-01T10:34:34Z</time></trkpt>
<trkpt lat="45.091699" lon="5.608739"><ele>1635.9</ele><time>2025-06-01T10:34:34Z</time></trkpt>
<trkpt lat="45.091755" lon="5.608814"><ele>1637.2</ele><time>2025-06-01T10:34:34Z</time></trkpt>
<trkpt lat="45.091822" lon="5.608830"><ele>1638.2</ele><time>2025-06-01T10:34:34Z</time></trkpt>
<trkpt lat="45.091882" lon="5.608839"><ele>1638.6</ele><time>2025-06-01T10:34:34Z</time></trkpt>
<trkpt lat="45.091925" lon="5.608914"><ele>1640.1</ele><time>2025-06-01T10:34:34Z</time></trkpt>
<trkpt lat="45.091979" lon="5.608964"><ele>1640.8</ele><time>2025-06-01T10:34:34Z</time></trkpt>
<trkpt lat="45.092101" lon="5.608978"><ele>1641.3</ele><time>2025-06-01T10:34:34Z</time></trkpt>
<trkpt lat="45.092163" lon="5.608979"><ele>1641.4</ele><time>2025-06-01T10:34:34Z</time></trkpt>
<trkpt lat="45.092130" lon="5.609003"><ele>1641.6</ele><time>2025-06-01T10:34:34Z</time></trkpt>
<trkpt lat="45.092111" lon="5.609066"><ele>1641.9</ele><time>2025-06-01T10:34:34Z</time></trkpt>
<trkpt lat="45.092094" lon="5.609121"><ele>1642.3</ele><time>2025-06-01T10:34:34Z</time></trkpt>
<trkpt lat="45.092074" lon="5.609150"><ele>1642.9</ele><time>2025-06-01T10:34:34Z</time></trkpt>
<trkpt lat="45.092052" lon="5.609169"><ele>1643.5</ele><time>2025-06-01T10:34:34Z</time></trkpt>
<trkpt lat="45.092027" lon="5.609185"><ele>1643.5</ele><time>2025-06-01T10:34:34Z</time></trkpt>
<trkpt lat="45.092004" lon="5.609214"><ele>1644.3</ele><time>2025-06-01T10:34:34Z</time></trkpt>
<trkpt lat="45.091983" lon="5.609256"><ele>1645.0</ele><time>2025-06-01T10:34:34Z</time></trkpt>
<trkpt lat="45.091953" lon="5.609284"><ele>1645.1</ele><time>2025-06-01T10:34:34Z</time></trkpt>
<trkpt lat="45.091934" lon="5.609319"><ele>1646.0</ele><time>2025-06-01T10:34:34Z</time></trkpt>
<trkpt lat="45.091939" lon="5.609363"><ele>1646.8</ele><time>2025-06-01T10:34:34Z</time></trkpt>
<trkpt lat="45.091954" lon="5.609472"><ele>1649.5</ele><time>2025-06-01T10:34:34Z</time></trkpt>
<trkpt lat="45.091963" lon="5.609563"><ele>1651.5</ele><time>2025-06-01T10:34:34Z</time></trkpt>
<trkpt lat="45.091967" lon="5.609601"><ele>1652.3</ele><time>2025-06-01T10:34:34Z</time></trkpt>
<trkpt lat="45.091956" lon="5.609622"><ele>1652.6</ele><time>2025-06-01T10:34:34Z</time></trkpt>
<trkpt lat="45.091941" lon="5.609642"><ele>1653.7</ele><time>2025-06-01T10:34:34Z</time></trkpt>
<trkpt lat="45.091926" lon="5.609686"><ele>1654.8</ele><time>2025-06-01T10:34:34Z</time></trkpt>
<trkpt lat="45.091916" lon="5.609756"><ele>1656.2</ele><time>2025-06-01T10:34:34Z</time></trkpt>
<trkpt lat="45.091891" lon="5.609813"><ele>1658.5</ele><time>2025-06-01T10:34:34Z</time></trkpt>
<trkpt lat="45.091854" lon="5.609854"><ele>1658.8</ele><time>2025-06-01T10:34:34Z</time></trkpt>
<trkpt lat="45.091788" lon="5.609890"><ele>1660.7</ele><time>2025-06-01T10:34:34Z</time></trkpt>
<trkpt lat="45.091712" lon="5.609952"><ele>1663.6</ele><time>2025-06-01T10:34:34Z</time></trkpt>
<trkpt lat="45.091663" lon="5.610009"><ele>1664.7</ele><time>2025-06-01T10:34:34Z</time></trkpt>
<trkpt lat="45.091665" lon="5.610056"><ele>1665.8</ele><time>2025-06-01T10:34:34Z</time></trkpt>
<trkpt lat="45.091680" lon="5.610104"><ele>1667.1</ele><time>2025-06-01T10:34:34Z</time></trkpt>
<trkpt lat="45.091739" lon="5.610223"><ele>1670.7</ele><time>2025-06-01T10:34:34Z</time></trkpt>
<trkpt lat="45.091799" lon="5.610363"><ele>1672.8</ele><time>2025-06-01T10:34:34Z</time></trkpt>
<trkpt lat="45.091831" lon="5.610481"><ele>1676.1</ele><time>2025-06-01T10:34:34Z</time></trkpt>
<trkpt lat="45.091842" lon="5.610549"><ele>1678.2</ele><time>2025-06-01T10:34:34Z</time></trkpt>
<trkpt lat="45.091824" lon="5.610576"><ele>1678.7</ele><time>2025-06-01T10:34:34Z</time></trkpt>
<trkpt lat="45.091818" lon="5.610594"><ele>1679.9</ele><time>2025-06-01T10:34:34Z</time></trkpt>
<trkpt lat="45.091806" lon="5.610625"><ele>1681.1</ele><time>2025-06-01T10:34:34Z</time></trkpt>
<trkpt lat="45.091788" lon="5.610694"><ele>1682.6</ele><time>2025-06-01T10:34:34Z</time></trkpt>
<trkpt lat="45.091781" lon="5.610733"><ele>1683.3</ele><time>2025-06-01T10:34:34Z</time></trkpt>
<trkpt lat="45.091759" lon="5.610774"><ele>1684.0</ele><time>2025-06-01T10:34:34Z</time></trkpt>
<trkpt lat="45.091719" lon="5.610804"><ele>1684.8</ele><time>2025-06-01T10:34:34Z</time></trkpt>
<trkpt lat="45.091696" lon="5.610832"><ele>1684.8</ele><time>2025-06-01T10:34:34Z</time></trkpt>
<trkpt lat="45.091670" lon="5.610897"><ele>1685.7</ele><time>2025-06-01T10:34:34Z</time></trkpt>
<trkpt lat="45.091671" lon="5.610918"><ele>1685.7</ele><time>2025-06-01T10:34:34Z</time></trkpt>
<trkpt lat="45.091680" lon="5.610936"><ele>1686.2</ele><time>2025-06-01T10:34:34Z</time></trkpt>
<trkpt lat="45.091689" lon="5.610996"><ele>1686.6</ele><time>2025-06-01T10:34:34Z</time></trkpt>
<trkpt lat="45.091688" lon="5.611053"><ele>1687.1</ele><time>2025-06-01T10:34:34Z</time></trkpt>
<trkpt lat="45.091714" lon="5.611225"><ele>1690.3</ele><time>2025-06-01T10:34:34Z</time></trkpt>
<trkpt lat="45.091718" lon="5.611272"><ele>1691.4</ele><time>2025-06-01T10:34:34Z</time></trkpt>
<trkpt lat="45.091719" lon="5.611307"><ele>1691.4</ele><time>2025-06-01T10:34:34Z</time></trkpt>
<trkpt lat="45.091717" lon="5.611351"><ele>1692.1</ele><time>2025-06-01T10:34:34Z</time></trkpt>
<trkpt lat="45.091713" lon="5.611390"><ele>1692.6</ele><time>2025-06-01T10:34:34Z</time></trkpt>
<trkpt lat="45.091696" lon="5.611508"><ele>1695.3</ele><time>2025-06-01T10:34:34Z</time></trkpt>
<trkpt lat="45.091696" lon="5.611528"><ele>1696.4</ele><time>2025-06-01T10:34:34Z</time></trkpt>
<trkpt lat="45.091692" lon="5.611563"><ele>1696.4</ele><time>2025-06-01T10:34:34Z</time></trkpt>
<trkpt lat="45.091673" lon="5.611585"><ele>1697.4</ele><time>2025-06-01T10:34:34Z</time></trkpt>
<trkpt lat="45.091682" lon="5.611611"><ele>1697.4</ele><time>2025-06-01T10:34:34Z</time></trkpt>
<trkpt lat="45.091700" lon="5.611624"><ele>1698.5</ele><time>2025-06-01T10:34:34Z</time></trkpt>
<trkpt lat="45.091724" lon="5.611639"><ele>1699.4</ele><time>2025-06-01T10:34:34Z</time></trkpt>
<trkpt lat="45.091745" lon="5.611651"><ele>1699.4</ele><time>2025-06-01T10:34:34Z</time></trkpt>
<trkpt lat="45.091767" lon="5.611679"><ele>1701.6</ele><time>2025-06-01T10:34:34Z</time></trkpt>
<trkpt lat="45.091776" lon="5.611720"><ele>1703.1</ele><time>2025-06-01T10:34:34Z</time></trkpt>
<trkpt lat="45.091776" lon="5.611761"><ele>1704.7</ele><time>2025-06-01T10:34:34Z</time></trkpt>
<trkpt lat="45.091788" lon="5.611832"><ele>1707.8</ele><time>2025-06-01T10:34:34Z</time></trkpt>
<trkpt lat="45.091799" lon="5.611917"><ele>1711.0</ele><time>2025-06-01T10:34:34Z</time></trkpt>
<trkpt lat="45.091846" lon="5.612060"><ele>1715.3</ele><time>2025-06-01T10:34:34Z</time></trkpt>
<trkpt lat="45.091888" lon="5.612200"><ele>1719.2</ele><time>2025-06-01T10:34:34Z</time></trkpt>
<trkpt lat="45.091909" lon="5.612259"><ele>1721.4</ele><time>2025-06-01T10:34:34Z</time></trkpt>
<trkpt lat="45.091929" lon="5.612274"><ele>1721.8</ele><time>2025-06-01T10:34:34Z</time></trkpt>
<trkpt lat="45.091943" lon="5.612284"><ele>1721.8</ele><time>2025-06-01T10:34:34Z</time></trkpt>
<trkpt lat="45.091960" lon="5.612362"><ele>1723.9</ele><time>2025-06-01T10:34:34Z</time></trkpt>
<trkpt lat="45.091981" lon="5.612419"><ele>1725.2</ele><time>2025-06-01T10:34:34Z</time></trkpt>
<trkpt lat="45.092001" lon="5.612462"><ele>1726.2</ele><time>2025-06-01T10:34:34Z</time></trkpt>
<trkpt lat="45.092021" lon="5.612528"><ele>1728.4</ele><time>2025-06-01T10:34:34Z</time></trkpt>
<trkpt lat="45.092066" lon="5.612569"><ele>1729.7</ele><time>2025-06-01T10:34:34Z</time></trkpt>
<trkpt lat="45.092136" lon="5.612678"><ele>1731.8</ele><time>2025-06-01T10:34:34Z</time></trkpt>
<trkpt lat="45.092252" lon="5.612818"><ele>1735.1</ele><time>2025-06-01T10:34:34Z</time></trkpt>
<trkpt lat="45.092355" lon="5.612950"><ele>1737.2</ele><time>2025-06-01T10:34:34Z</time></trkpt>
<trkpt lat="45.092413" lon="5.613043"><ele>1738.5</ele><time>2025-06-01T10:34:34Z</time></trkpt>
<trkpt lat="45.092430" lon="5.613087"><ele>1739.2</ele><time>2025-06-01T10:34:34Z</time></trkpt>
<trkpt lat="45.092434" lon="5.613143"><ele>1739.9</ele><time>2025-06-01T10:34:34Z</time></trkpt>
<trkpt lat="45.092442" lon="5.613212"><ele>1741.3</ele><time>2025-06-01T10:34:34Z</time></trkpt>
<trkpt lat="45.092444" lon="5.613263"><ele>1742.0</ele><time>2025-06-01T10:34:34Z</time></trkpt>
<trkpt lat="45.092438" lon="5.613296"><ele>1742.7</ele><time>2025-06-01T10:34:34Z</time></trkpt>
<trkpt lat="45.092440" lon="5.613331"><ele>1743.4</ele><time>2025-06-01T10:34:34Z</time></trkpt>
<trkpt lat="45.092454" lon="5.613361"><ele>1743.4</ele><time>2025-06-01T10:34:34Z</time></trkpt>
<trkpt lat="45.092462" lon="5.613389"><ele>1744.1</ele><time>2025-06-01T10:34:34Z</time></trkpt>
<trkpt lat="45.092467" lon="5.613422"><ele>1744.8</ele><time>2025-06-01T10:34:34Z</time></trkpt>
<trkpt lat="45.092475" lon="5.613451"><ele>1744.8</ele><time>2025-06-01T10:34:34Z</time></trkpt>
<trkpt lat="45.092495" lon="5.613479"><ele>1745.5</ele><time>2025-06-01T10:34:34Z</time></trkpt>
<trkpt lat="45.092566" lon="5.613553"><ele>1747.1</ele><time>2025-06-01T10:34:34Z</time></trkpt>
<trkpt lat="45.092611" lon="5.613574"><ele>1747.1</ele><time>2025-06-01T10:34:34Z</time></trkpt>
<trkpt lat="45.092627" lon="5.613595"><ele>1748.0</ele><time>2025-06-01T10:34:34Z</time></trkpt>
<trkpt lat="45.092641" lon="5.613622"><ele>1748.0</ele><time>2025-06-01T10:34:34Z</time></trkpt>
<trkpt lat="45.092656" lon="5.613629"><ele>1748.8</ele><time>2025-06-01T10:34:34Z</time></trkpt>
<trkpt lat="45.092670" lon="5.613650"><ele>1748.8</ele><time>2025-06-01T10:34:34Z</time></trkpt>
<trkpt lat="45.092682" lon="5.613690"><ele>1749.6</ele><time>2025-06-01T10:34:34Z</time></trkpt>
<trkpt lat="45.092714" lon="5.613784"><ele>1751.3</ele><time>2025-06-01T10:34:34Z</time></trkpt>
<trkpt lat="45.092722" lon="5.613839"><ele>1752.0</ele><time>2025-06-01T10:34:34Z</time></trkpt>
<trkpt lat="45.092727" lon="5.613877"><ele>1752.8</ele><time>2025-06-01T10:34:34Z</time></trkpt>
<trkpt lat="45.092722" lon="5.613914"><ele>1753.5</ele><time>2025-06-01T10:34:34Z</time></trkpt>
<trkpt lat="45.092719" lon="5.613941"><ele>1754.1</ele><time>2025-06-01T10:34:34Z</time></trkpt>
<trkpt lat="45.092720" lon="5.613978"><ele>1754.8</ele><time>2025-06-01T10:34:34Z</time></trkpt>
<trkpt lat="45.092715" lon="5.614015"><ele>1755.4</ele><time>2025-06-01T10:34:34Z</time></trkpt>
<trkpt lat="45.092702" lon="5.614042"><ele>1755.4</ele><time>2025-06-01T10:34:34Z</time></trkpt>
<trkpt lat="45.092695" lon="5.614070"><ele>1756.0</ele><time>2025-06-01T10:34:34Z</time></trkpt>
<trkpt lat="45.092698" lon="5.614096"><ele>1756.7</ele><time>2025-06-01T10:34:34Z</time></trkpt>
<trkpt lat="45.092715" lon="5.614113"><ele>1756.7</ele><time>2025-06-01T10:34:34Z</time></trkpt>
<trkpt lat="45.092734" lon="5.614130"><ele>1756.7</ele><time>2025-06-01T10:34:34Z</time></trkpt>
<trkpt lat="45.092749" lon="5.614159"><ele>1757.6</ele><time>2025-06-01T10:34:34Z</time></trkpt>
<trkpt lat="45.092777" lon="5.614248"><ele>1758.9</ele><time>2025-06-01T10:34:34Z</time></trkpt>
<trkpt lat="45.092795" lon="5.614314"><ele>1759.9</ele><time>2025-06-01T10:34:34Z</time></trkpt>
<trkpt lat="45.092816" lon="5.614341"><ele>1760.6</ele><time>2025-06-01T10:34:34Z</time></trkpt>
<trkpt lat="45.092838" lon="5.614360"><ele>1761.6</ele><time>2025-06-01T10:34:34Z</time></trkpt>
<trkpt lat="45.092847" lon="5.614382"><ele>1761.6</ele><time>2025-06-01T10:34:34Z</time></trkpt>
<trkpt lat="45.092860" lon="5.614396"><ele>1762.3</ele><time>2025-06-01T10:34:34Z</time></trkpt>
<trkpt lat="45.092871" lon="5.614417"><ele>1762.7</ele><time>2025-06-01T10:34:34Z</time></trkpt>
<trkpt lat="45.092871" lon="5.614450"><ele>1763.4</ele><time>2025-06-01T10:34:34Z</time></trkpt>
<trkpt lat="45.092869" lon="5.614492"><ele>1764.1</ele><time>2025-06-01T10:34:34Z</time></trkpt>
<trkpt lat="45.092876" lon="5.614527"><ele>1764.8</ele><time>2025-06-01T10:34:34Z</time></trkpt>
<trkpt lat="45.092893" lon="5.614564"><ele>1764.8</ele><time>2025-06-01T10:34:34Z</time></trkpt>
<trkpt lat="45.092903" lon="5.614587"><ele>1765.5</ele><time>2025-06-01T10:34:34Z</time></trkpt>
<trkpt lat="45.092924" lon="5.614592"><ele>1765.9</ele><time>2025-06-01T10:34:34Z</time></trkpt>
<trkpt lat="45.092938" lon="5.614607"><ele>1765.9</ele><time>2025-06-01T10:34:34Z</time></trkpt>
<trkpt lat="45.092952" lon="5.614643"><ele>1766.6</ele><time>2025-06-01T10:34:34Z</time></trkpt>
<trkpt lat="45.092958" lon="5.614680"><ele>1767.7</ele><time>2025-06-01T10:34:34Z</time></trkpt>
<trkpt lat="45.092951" lon="5.614706"><ele>1768.1</ele><time>2025-06-01T10:34:34Z</time></trkpt>
<trkpt lat="45.092941" lon="5.614730"><ele>1768.1</ele><time>2025-06-01T10:34:34Z</time></trkpt>
<trkpt lat="45.092934" lon="5.614765"><ele>1768.8</ele><time>2025-06-01T10:34:34Z</time></trkpt>
<trkpt lat="45.092923" lon="5.614775"><ele>1768.8</ele><time>2025-06-01T10:34:34Z</time></trkpt>
<trkpt lat="45.092908" lon="5.614780"><ele>1768.5</ele><time>2025-06-01T10:34:34Z</time></trkpt>
<trkpt lat="45.092906" lon="5.614805"><ele>1769.3</ele><time>2025-06-01T10:34:34Z</time></trkpt>
<trkpt lat="45.092917" lon="5.614840"><ele>1770.4</ele><time>2025-06-01T10:34:34Z</time></trkpt>
<trkpt lat="45.092917" lon="5.614877"><ele>1771.1</ele><time>2025-06-01T10:34:34Z</time></trkpt>
<trkpt lat="45.092911" lon="5.614911"><ele>1770.9</ele><time>2025-06-01T10:34:34Z</time></trkpt>
<trkpt lat="45.092910" lon="5.614941"><ele>1771.7</ele><time>2025-06-01T10:34:34Z</time></trkpt>
<trkpt lat="45.092897" lon="5.615008"><ele>1773.3</ele><time>2025-06-01T10:34:34Z</time></trkpt>
<trkpt lat="45.092884" lon="5.615044"><ele>1773.3</ele><time>2025-06-01T10:34:34Z</time></trkpt>
<trkpt lat="45.092871" lon="5.615080"><ele>1774.2</ele><time>2025-06-01T10:34:34Z</time></trkpt>
<trkpt lat="45.092858" lon="5.615117"><ele>1774.8</ele><time>2025-06-01T10:34:34Z</time></trkpt>
<trkpt lat="45.092840" lon="5.615148"><ele>1775.7</ele><time>2025-06-01T10:34:34Z</time></trkpt>
<trkpt lat="45.092834" lon="5.615182"><ele>1776.5</ele><time>2025-06-01T10:34:34Z</time></trkpt>
<trkpt lat="45.092837" lon="5.615214"><ele>1776.5</ele><time>2025-06-01T10:34:34Z</time></trkpt>
<trkpt lat="45.092845" lon="5.615256"><ele>1778.3</ele><time>2025-06-01T10:34:34Z</time></trkpt>
<trkpt lat="45.092844" lon="5.615295"><ele>1778.3</ele><time>2025-06-01T10:34:34Z</time></trkpt>
<trkpt lat="45.092835" lon="5.615340"><ele>1779.1</ele><time>2025-06-01T10:34:34Z</time></trkpt>
<trkpt lat="45.092820" lon="5.615378"><ele>1779.8</ele><time>2025-06-01T10:34:34Z</time></trkpt>
<trkpt lat="45.092804" lon="5.615414"><ele>1780.7</ele><time>2025-06-01T10:34:34Z</time></trkpt>
<trkpt lat="45.092792" lon="5.615451"><ele>1781.6</ele><time>2025-06-01T10:34:34Z</time></trkpt>
<trkpt lat="45.092771" lon="5.615469"><ele>1781.5</ele><time>2025-06-01T10:34:34Z</time></trkpt>
<trkpt lat="45.092762" lon="5.615496"><ele>1782.4</ele><time>2025-06-01T10:34:34Z</time></trkpt>
<trkpt lat="45.092756" lon="5.615541"><ele>1783.3</ele><time>2025-06-01T10:34:34Z</time></trkpt>
<trkpt lat="45.092759" lon="5.615588"><ele>1784.3</ele><time>2025-06-01T10:34:34Z</time></trkpt>
<trkpt lat="45.092758" lon="5.615634"><ele>1785.3</ele><time>2025-06-01T10:34:34Z</time></trkpt>
<trkpt lat="45.092751" lon="5.615669"><ele>1786.3</ele><time>2025-06-01T10:34:34Z</time></trkpt>
<trkpt lat="45.092735" lon="5.615694"><ele>1787.3</ele><time>2025-06-01T10:34:34Z</time></trkpt>
<trkpt lat="45.092719" lon="5.615714"><ele>1787.3</ele><time>2025-06-01T10:34:34Z</time></trkpt>
<trkpt lat="45.092713" lon="5.615731"><ele>1787.3</ele><time>2025-06-01T10:34:34Z</time></trkpt>
<trkpt lat="45.092721" lon="5.615758"><ele>1788.3</ele><time>2025-06-01T10:34:34Z</time></trkpt>
<trkpt lat="45.092729" lon="5.615795"><ele>1789.3</ele><time>2025-06-01T10:34:34Z</time></trkpt>
<trkpt lat="45.092735" lon="5.615837"><ele>1790.3</ele><time>2025-06-01T10:34:34Z</time></trkpt>
<trkpt lat="45.092742" lon="5.615886"><ele>1791.3</ele><time>2025-06-01T10:34:34Z</time></trkpt>
<trkpt lat="45.092742" lon="5.615923"><ele>1792.4</ele><time>2025-06-01T10:34:34Z</time></trkpt>
<trkpt lat="45.092776" lon="5.616008"><ele>1794.4</ele><time>2025-06-01T10:34:34Z</time></trkpt>
<trkpt lat="45.092851" lon="5.616054"><ele>1795.5</ele><time>2025-06-01T10:34:34Z</time></trkpt>
<trkpt lat="45.092880" lon="5.616072"><ele>1795.5</ele><time>2025-06-01T10:34:34Z</time></trkpt>
<trkpt lat="45.092899" lon="5.616095"><ele>1796.6</ele><time>2025-06-01T10:34:34Z</time></trkpt>
<trkpt lat="45.092916" lon="5.616129"><ele>1797.8</ele><time>2025-06-01T10:34:34Z</time></trkpt>
<trkpt lat="45.092919" lon="5.616159"><ele>1798.9</ele><time>2025-06-01T10:34:34Z</time></trkpt>
<trkpt lat="45.092919" lon="5.616193"><ele>1798.9</ele><time>2025-06-01T10:34:34Z</time></trkpt>
<trkpt lat="45.092929" lon="5.616230"><ele>1800.2</ele><time>2025-06-01T10:34:34Z</time></trkpt>
<trkpt lat="45.092942" lon="5.616265"><ele>1801.4</ele><time>2025-06-01T10:34:34Z</time></trkpt>
<trkpt lat="45.092945" lon="5.616299"><ele>1802.7</ele><time>2025-06-01T10:34:34Z</time></trkpt>
<trkpt lat="45.092948" lon="5.616333"><ele>1802.7</ele><time>2025-06-01T10:34:34Z</time></trkpt>
<trkpt lat="45.092953" lon="5.616360"><ele>1804.0</ele><time>2025-06-01T10:34:34Z</time></trkpt>
<trkpt lat="45.092954" lon="5.616389"><ele>1805.3</ele><time>2025-06-01T10:34:34Z</time></trkpt>
<trkpt lat="45.092961" lon="5.616405"><ele>1805.2</ele><time>2025-06-01T10:34:34Z</time></trkpt>
<trkpt lat="45.092955" lon="5.616422"><ele>1806.6</ele><time>2025-06-01T10:34:34Z</time></trkpt>
<trkpt lat="45.092937" lon="5.616448"><ele>1806.7</ele><time>2025-06-01T10:34:34Z</time></trkpt>
<trkpt lat="45.092918" lon="5.616465"><ele>1808.0</ele><time>2025-06-01T10:34:34Z</time></trkpt>
<trkpt lat="45.092904" lon="5.616477"><ele>1808.1</ele><time>2025-06-01T10:34:34Z</time></trkpt>
<trkpt lat="45.092885" lon="5.616512"><ele>1809.5</ele><time>2025-06-01T10:34:34Z</time></trkpt>
<trkpt lat="45.092876" lon="5.616542"><ele>1809.5</ele><time>2025-06-01T10:34:34Z</time></trkpt>
<trkpt lat="45.092850" lon="5.616583"><ele>1811.1</ele><time>2025-06-01T10:34:34Z</time></trkpt>
<trkpt lat="45.092818" lon="5.616614"><ele>1812.6</ele><time>2025-06-01T10:34:34Z</time></trkpt>
<trkpt lat="45.092793" lon="5.616639"><ele>1814.1</ele><time>2025-06-01T10:34:34Z</time></trkpt>
<trkpt lat="45.092781" lon="5.616665"><ele>1814.2</ele><time>2025-06-01T10:34:34Z</time></trkpt>
<trkpt lat="45.092765" lon="5.616687"><ele>1815.7</ele><time>2025-06-01T10:34:34Z</time></trkpt>
<trkpt lat="45.092742" lon="5.616713"><ele>1815.8</ele><time>2025-06-01T10:34:34Z</time></trkpt>
<trkpt lat="45.092712" lon="5.616738"><ele>1817.4</ele><time>2025-06-01T10:34:34Z</time></trkpt>
<trkpt lat="45.092681" lon="5.616757"><ele>1817.4</ele><time>2025-06-01T10:34:34Z</time></trkpt>
<trkpt lat="45.092655" lon="5.616777"><ele>1819.0</ele><time>2025-06-01T10:34:34Z</time></trkpt>
<trkpt lat="45.092631" lon="5.616798"><ele>1819.0</ele><time>2025-06-01T10:34:34Z</time></trkpt>
<trkpt lat="45.092620" lon="5.616818"><ele>1820.6</ele><time>2025-06-01T10:34:34Z</time></trkpt>
<trkpt lat="45.092580" lon="5.616847"><ele>1822.1</ele><time>2025-06-01T10:34:34Z</time></trkpt>
<trkpt lat="45.092570" lon="5.616880"><ele>1822.1</ele><time>2025-06-01T10:34:34Z</time></trkpt>
<trkpt lat="45.092569" lon="5.616918"><ele>1823.7</ele><time>2025-06-01T10:34:34Z</time></trkpt>
<trkpt lat="45.092556" lon="5.616947"><ele>1825.2</ele><time>2025-06-01T10:34:34Z</time></trkpt>
<trkpt lat="45.092480" lon="5.617020"><ele>1828.2</ele><time>2025-06-01T10:34:34Z</time></trkpt>
<trkpt lat="45.092440" lon="5.617094"><ele>1829.8</ele><time>2025-06-01T10:34:34Z</time></trkpt>
<trkpt lat="45.092423" lon="5.617139"><ele>1831.2</ele><time>2025-06-01T10:34:34Z</time></trkpt>
<trkpt lat="45.092423" lon="5.617161"><ele>1832.7</ele><time>2025-06-01T10:34:34Z</time></trkpt>
<trkpt lat="45.092429" lon="5.617190"><ele>1834.2</ele><time>2025-06-01T10:34:34Z</time></trkpt>
<trkpt lat="45.092433" lon="5.617221"><ele>1834.2</ele><time>2025-06-01T10:34:34Z</time></trkpt>
<trkpt lat="45.092435" lon="5.617260"><ele>1835.9</ele><time>2025-06-01T10:34:34Z</time></trkpt>
<trkpt lat="45.092420" lon="5.617284"><ele>1837.3</ele><time>2025-06-01T10:34:34Z</time></trkpt>
<trkpt lat="45.092382" lon="5.617304"><ele>1837.0</ele><time>2025-06-01T10:34:34Z</time></trkpt>
<trkpt lat="45.092323" lon="5.617343"><ele>1838.2</ele><time>2025-06-01T10:34:34Z</time></trkpt>
<trkpt lat="45.092292" lon="5.617369"><ele>1839.3</ele><time>2025-06-01T10:34:34Z</time></trkpt>
<trkpt lat="45.092249" lon="5.617389"><ele>1838.9</ele><time>2025-06-01T10:34:34Z</time></trkpt>
<trkpt lat="45.092216" lon="5.617414"><ele>1839.8</ele><time>2025-06-01T10:34:34Z</time></trkpt>
<trkpt lat="45.092163" lon="5.617445"><ele>1840.5</ele><time>2025-06-01T10:34:34Z</time></trkpt>
<trkpt lat="45.092118" lon="5.617485"><ele>1841.2</ele><time>2025-06-01T10:34:34Z</time></trkpt>
<trkpt lat="45.092090" lon="5.617538"><ele>1841.7</ele><time>2025-06-01T10:34:34Z</time></trkpt>
<trkpt lat="45.092064" lon="5.617585"><ele>1843.0</ele><time>2025-06-01T10:34:34Z</time></trkpt>
<trkpt lat="45.092043" lon="5.617622"><ele>1843.5</ele><time>2025-06-01T10:34:34Z</time></trkpt>
<trkpt lat="45.092038" lon="5.617697"><ele>1844.7</ele><time>2025-06-01T10:34:34Z</time></trkpt>
<trkpt lat="45.092005" lon="5.617815"><ele>1847.6</ele><time>2025-06-01T10:34:34Z</time></trkpt>
<trkpt lat="45.091993" lon="5.617855"><ele>1848.9</ele><time>2025-06-01T10:34:34Z</time></trkpt>
<trkpt lat="45.091967" lon="5.617933"><ele>1851.5</ele><time>2025-06-01T10:34:34Z</time></trkpt>
<trkpt lat="45.091899" lon="5.618100"><ele>1855.3</ele><time>2025-06-01T10:34:34Z</time></trkpt>
<trkpt lat="45.091820" lon="5.618262"><ele>1858.2</ele><time>2025-06-01T10:34:34Z</time></trkpt>
<trkpt lat="45.091763" lon="5.618394"><ele>1862.5</ele><time>2025-06-01T10:34:34Z</time></trkpt>
<trkpt lat="45.091711" lon="5.618463"><ele>1864.7</ele><time>2025-06-01T10:34:34Z</time></trkpt>
<trkpt lat="45.091673" lon="5.618511"><ele>1866.6</ele><time>2025-06-01T10:34:34Z</time></trkpt>
<trkpt lat="45.091651" lon="5.618534"><ele>1867.9</ele><time>2025-06-01T10:34:34Z</time></trkpt>
<trkpt lat="45.091643" lon="5.618563"><ele>1867.9</ele><time>2025-06-01T10:34:34Z</time></trkpt>
<trkpt lat="45.091636" lon="5.618604"><ele>1869.8</ele><time>2025-06-01T10:34:34Z</time></trkpt>
<trkpt lat="45.091627" lon="5.618650"><ele>1873.7</ele><time>2025-06-01T10:34:34Z</time></trkpt>
<trkpt lat="45.091611" lon="5.618684"><ele>1873.4</ele><time>2025-06-01T10:34:34Z</time></trkpt>
<trkpt lat="45.091599" lon="5.618711"><ele>1875.4</ele><time>2025-06-01T10:34:34Z</time></trkpt>
<trkpt lat="45.091582" lon="5.618742"><ele>1877.4</ele><time>2025-06-01T10:34:34Z</time></trkpt>
<trkpt lat="45.091566" lon="5.618769"><ele>1877.4</ele><time>2025-06-01T10:34:34Z</time></trkpt>
<trkpt lat="45.091568" lon="5.618796"><ele>1879.4</ele><time>2025-06-01T10:34:34Z</time></trkpt>
<trkpt lat="45.091576" lon="5.618821"><ele>1879.4</ele><time>2025-06-01T10:34:34Z</time></trkpt>
<trkpt lat="45.091589" lon="5.618856"><ele>1881.2</ele><time>2025-06-01T10:34:34Z</time></trkpt>
<trkpt lat="45.091590" lon="5.618895"><ele>1882.9</ele><time>2025-06-01T10:34:34Z</time></trkpt>
<trkpt lat="45.091584" lon="5.618918"><ele>1884.8</ele><time>2025-06-01T10:34:34Z</time></trkpt>
<trkpt lat="45.091569" lon="5.618944"><ele>1884.8</ele><time>2025-06-01T10:34:34Z</time></trkpt>
<trkpt lat="45.091568" lon="5.618969"><ele>1886.4</ele><time>2025-06-01T10:34:34Z</time></trkpt>
<trkpt lat="45.091568" lon="5.618995"><ele>1887.7</ele><time>2025-06-01T10:34:34Z</time></trkpt>
<trkpt lat="45.091573" lon="5.619021"><ele>1887.7</ele><time>2025-06-01T10:34:34Z</time></trkpt>
<trkpt lat="45.091580" lon="5.619051"><ele>1888.7</ele><time>2025-06-01T10:34:34Z</time></trkpt>
<trkpt lat="45.091586" lon="5.619075"><ele>1888.4</ele><time>2025-06-01T10:34:34Z</time></trkpt>
<trkpt lat="45.091579" lon="5.619095"><ele>1889.4</ele><time>2025-06-01T10:34:34Z</time></trkpt>
<trkpt lat="45.091564" lon="5.619108"><ele>1889.4</ele><time>2025-06-01T10:34:34Z</time></trkpt>
<trkpt lat="45.091549" lon="5.619120"><ele>1889.4</ele><time>2025-06-01T10:34:34Z</time></trkpt>
<trkpt lat="45.091561" lon="5.619142"><ele>1889.5</ele><time>2025-06-01T10:34:34Z</time></trkpt>
<trkpt lat="45.091606" lon="5.619195"><ele>1887.6</ele><time>2025-06-01T10:34:34Z</time></trkpt>
<trkpt lat="45.091618" lon="5.619205"><ele>1886.3</ele><time>2025-06-01T10:34:34Z</time></trkpt>
<trkpt lat="45.091611" lon="5.619222"><ele>1886.3</ele><time>2025-06-01T10:34:34Z</time></trkpt>
<trkpt lat="45.091588" lon="5.619230"><ele>1886.3</ele><time>2025-06-01T10:34:34Z</time></trkpt>
<trkpt lat="45.091530" lon="5.619283"><ele>1888.5</ele><time>2025-06-01T10:34:34Z</time></trkpt>
<trkpt lat="45.091452" lon="5.619354"><ele>1889.5</ele><time>2025-06-01T10:34:34Z</time></trkpt>
<trkpt lat="45.091361" lon="5.619382"><ele>1892.5</ele><time>2025-06-01T10:34:34Z</time></trkpt>
<trkpt lat="45.091246" lon="5.619428"><ele>1895.5</ele><time>2025-06-01T10:34:34Z</time></trkpt>
<trkpt lat="45.091198" lon="5.619460"><ele>1898.0</ele><time>2025-06-01T10:34:34Z</time></trkpt>
<trkpt lat="45.091176" lon="5.619484"><ele>1899.0</ele><time>2025-06-01T10:34:34Z</time></trkpt>
<trkpt lat="45.091143" lon="5.619494"><ele>1901.6</ele><time>2025-06-01T10:34:34Z</time></trkpt>
<trkpt lat="45.091054" lon="5.619503"><ele>1905.2</ele><time>2025-06-01T10:34:34Z</time></trkpt>
<trkpt lat="45.090961" lon="5.619500"><ele>1908.8</ele><time>2025-06-01T10:34:34Z</time></trkpt>
<trkpt lat="45.090849" lon="5.619474"><ele>1915.0</ele><time>2025-06-01T10:34:34Z</time></trkpt>
<trkpt lat="45.090776" lon="5.619466"><ele>1917.2</ele><time>2025-06-01T10:34:34Z</time></trkpt>
<trkpt lat="45.090743" lon="5.619470"><ele>1919.4</ele><time>2025-06-01T10:34:34Z</time></trkpt>
<trkpt lat="45.090713" lon="5.619473"><ele>1921.5</ele><time>2025-06-01T10:34:34Z</time></trkpt>
<trkpt lat="45.090672" lon="5.619467"><ele>1923.6</ele><time>2025-06-01T10:34:34Z</time></trkpt>
<trkpt lat="45.090646" lon="5.619444"><ele>1922.0</ele><time>2025-06-01T10:34:34Z</time></trkpt>
<trkpt lat="45.090625" lon="5.619409"><ele>1921.9</ele><time>2025-06-01T10:34:34Z</time></trkpt>
<trkpt lat="45.090598" lon="5.619378"><ele>1921.9</ele><time>2025-06-01T10:34:34Z</time></trkpt>
<trkpt lat="45.090574" lon="5.619362"><ele>1921.6</ele><time>2025-06-01T10:34:34Z</time></trkpt>
<trkpt lat="45.090533" lon="5.619351"><ele>1923.2</ele><time>2025-06-01T10:34:34Z</time></trkpt>
<trkpt lat="45.090463" lon="5.619298"><ele>1924.1</ele><time>2025-06-01T10:34:34Z</time></trkpt>
<trkpt lat="45.090379" lon="5.619251"><ele>1923.4</ele><time>2025-06-01T10:34:34Z</time></trkpt>
<trkpt lat="45.090327" lon="5.619239"><ele>1924.1</ele><time>2025-06-01T10:34:34Z</time></trkpt>
<trkpt lat="45.090285" lon="5.619247"><ele>1927.3</ele><time>2025-06-01T10:34:34Z</time></trkpt>
<trkpt lat="45.090241" lon="5.619213"><ele>1926.6</ele><time>2025-06-01T10:34:34Z</time></trkpt>
<trkpt lat="45.090190" lon="5.619209"><ele>1927.7</ele><time>2025-06-01T10:34:34Z</time></trkpt>
<trkpt lat="45.090147" lon="5.619210"><ele>1928.7</ele><time>2025-06-01T10:34:34Z</time></trkpt>
<trkpt lat="45.090002" lon="5.619190"><ele>1929.7</ele><time>2025-06-01T10:34:34Z</time></trkpt>
<trkpt lat="45.089959" lon="5.619188"><ele>1930.4</ele><time>2025-06-01T10:34:34Z</time></trkpt>
<trkpt lat="45.089908" lon="5.619209"><ele>1932.3</ele><time>2025-06-01T10:34:34Z</time></trkpt>
<trkpt lat="45.089866" lon="5.619250"><ele>1933.9</ele><time>2025-06-01T10:34:34Z</time></trkpt>
<trkpt lat="45.089856" lon="5.619288"><ele>1934.1</ele><time>2025-06-01T10:34:34Z</time></trkpt>
<trkpt lat="45.089863" lon="5.619352"><ele>1936.0</ele><time>2025-06-01T10:34:34Z</time></trkpt>
<trkpt lat="45.089895" lon="5.619492"><ele>1937.6</ele><time>2025-06-01T10:34:34Z</time></trkpt>
<trkpt lat="45.089910" lon="5.619528"><ele>1937.9</ele><time>2025-06-01T10:34:34Z</time></trkpt>
</trkseg>
</trk>
</gpx>